     2.100          NAVIGATION                              RINEX VERSION / TYPE
fic2rin                                 02/23/2012 00:22:12 PGM / RUN BY / DATE
                                                            END OF HEADER
32 12  2 22  4  0  0.0 -.410791020840D-03 -.522959453519D-11  .000000000000D+00
     .450000000000D+02  .200000000000D+01  .517021536022D-08 -.103862224043D+01
     .838190317154D-07  .118657544954D-01  .356882810593D-05  .515373059464D+04
     .273600000000D+06 -.119209289551D-06  .165971737965D+01 -.115483999252D-06
     .951944979141D+00  .307968750000D+03 -.612546267285D+00 -.865250326863D-08
     .202508435289D-09  .100000000000D+01  .167600000000D+04  .000000000000D+00
     .240000000000D+01  .000000000000D+00 -.279396772385D-08  .450000000000D+02
     .266406000000D+06  .400000000000D+01
 5 12  2 22  3 59 44.0 -.285586807877D-03 -.443378667114D-11  .000000000000D+00
     .420000000000D+02  .177187500000D+02  .523628954105D-08  .175652125832D+01
     .964850187302D-06  .270079146139D-02  .357627868652D-05  .515359952736D+04
     .273584000000D+06 -.242143869400D-07  .157067822103D+01 -.204890966415D-07
     .951291511190D+00  .307000000000D+03  .296631295130D+00 -.854607026384D-08
     .124290891500D-09  .100000000000D+01  .167600000000D+04  .000000000000D+00
     .240000000000D+01  .000000000000D+00 -.102445483208D-07  .420000000000D+02
     .266706000000D+06  .400000000000D+01
 1 12  2 22  6  0  0.0  .217125285417D-03  .920863385545D-11  .000000000000D+00
     .850000000000D+02  .287500000000D+02  .429732185785D-08 -.714547583752D+00
     .139512121677D-05  .562993460335D-03  .114087015390D-04  .515366608810D+04
     .280800000000D+06  .186264514923D-07  .519159355631D+00  .558793544769D-08
     .960511414870D+00  .158406250000D+03  .870962969115D+00 -.789854329175D-08
     .300369654459D-09  .100000000000D+01  .167600000000D+04  .000000000000D+00
     .240000000000D+01  .000000000000D+00  .838190317154D-08  .850000000000D+02
     .273606000000D+06  .400000000000D+01
 2 12  2 22  6  0  0.0  .379975419492D-03  .147792889038D-11  .000000000000D+00
     .590000000000D+02  .433125000000D+02  .487127433670D-08  .897904984250D+00
     .237487256527D-05  .109500468243D-01  .112839043140D-04  .515365531921D+04
     .280800000000D+06 -.242143869400D-07  .507480248624D+00  .264495611191D-06
     .939085095361D+00  .151687500000D+03 -.285887076161D+01 -.822819988041D-08
     .239295681911D-09  .100000000000D+01  .167600000000D+04  .000000000000D+00
     .240000000000D+01  .000000000000D+00 -.172294676304D-07  .590000000000D+02
     .273606000000D+06  .400000000000D+01
 3 12  2 22  6  0  0.0  .128145329654D-04  .500222085975D-11  .000000000000D+00
     .300000000000D+02 -.106062500000D+03  .548772858592D-08  .103366135649D+01
    -.549107789993D-05  .150339868851D-01  .683404505253D-05  .515370730972D+04
     .280800000000D+06 -.227242708206D-06 -.654383161320D+00 -.372529029846D-08
     .930717939795D+00  .238031250000D+03  .117209386379D+01 -.883965392135D-08
    -.555380276675D-09  .100000000000D+01  .167600000000D+04  .000000000000D+00
     .240000000000D+01  .000000000000D+00 -.419095158577D-08  .300000000000D+02
     .273606000000D+06  .400000000000D+01
 4 12  2 22  6  0  0.0  .101431272924D-03  .114823706099D-10  .000000000000D+00
     .370000000000D+02  .442187500000D+02  .478555648049D-08 -.230413624898D+01
     .216998159885D-05  .995967304334D-02  .112056732178D-04  .515380642891D+04
     .280800000000D+06  .502914190292D-07  .524499468902D+00 -.689178705215D-07
     .938135216800D+00  .150781250000D+03  .831136004562D+00 -.799819029959D-08
     .444304221340D-09  .100000000000D+01  .167600000000D+04  .000000000000D+00
     .240000000000D+01  .000000000000D+00 -.605359673500D-08  .370000000000D+02
     .273606000000D+06  .400000000000D+01
 5 12  2 22  6  0  0.0 -.285618938506D-03 -.443378667114D-11  .000000000000D+00
     .430000000000D+02  .155000000000D+02  .522736059769D-08  .280898601875D+01
     .817701220512D-06  .270044256467D-02  .347383320332D-05  .515360034370D+04
     .280800000000D+06 -.186264514923D-08  .157061655464D+01 -.223517417908D-07
     .951292390404D+00  .309500000000D+03  .296731658625D+00 -.854392731744D-08
     .119647840956D-09  .100000000000D+01  .167600000000D+04  .000000000000D+00
     .240000000000D+01  .000000000000D+00 -.102445483208D-07  .430000000000D+02
     .273606000000D+06  .400000000000D+01
 6 12  2 22  6  0  0.0  .308705493808D-04  .102318153949D-11  .000000000000D+00
     .650000000000D+02 -.113843750000D+03  .509056918550D-08  .296386640953D+01
    -.574626028538D-05  .703403039370D-02  .729784369469D-05  .515370419884D+04
     .280800000000D+06 -.204890966415D-07 -.578526613521D+00  .106170773506D-06
     .937725390541D+00  .225156250000D+03 -.606586962233D+00 -.834320467082D-08
    -.460019161645D-09  .100000000000D+01  .167600000000D+04  .000000000000D+00
     .240000000000D+01  .000000000000D+00 -.512227416039D-08  .650000000000D+02
     .273606000000D+06  .400000000000D+01
 7 12  2 22  6  0  0.0  .589485280216D-04  .284217094304D-11  .000000000000D+00
     .800000000000D+01  .785312500000D+02  .397587989707D-08 -.605798475721D+00
     .411085784435D-05  .510080193635D-02  .106040388346D-04  .515362626839D+04
     .280800000000D+06  .745058059692D-07 -.260334071753D+01 -.111758708954D-07
     .975873012914D+00  .182656250000D+03 -.301165208877D+01 -.782175437889D-08
     .343585740297D-09  .100000000000D+01  .167600000000D+04  .000000000000D+00
     .240000000000D+01  .000000000000D+00 -.107102096081D-07  .800000000000D+01
     .273606000000D+06  .400000000000D+01
 8 12  2 22  6  0  0.0  .656116753817D-06  .000000000000D+00  .000000000000D+00
     .960000000000D+02  .946250000000D+02  .357872049664D-08 -.120790166134D+01
     .471249222755D-05  .120882485062D-01  .996142625809D-05  .515370534706D+04
     .280800000000D+06  .838190317154D-07 -.252210250959D+01 -.171363353729D-06
     .997877041698D+00  .205593750000D+03 -.298016630567D+01 -.756174354840D-08
     .506449667090D-09  .100000000000D+01  .167600000000D+04  .000000000000D+00
     .240000000000D+01  .000000000000D+00 -.465661287308D-08  .960000000000D+02
     .273606000000D+06  .400000000000D+01
 9 12  2 22  6  0  0.0  .140137504786D-03  .250111042988D-11  .000000000000D+00
     .144000000000D+03  .947812500000D+02  .381944480949D-08 -.126927130883D+01
     .510737299919D-05  .172213652404D-01  .113695859909D-04  .515364054108D+04
     .280800000000D+06 -.193715095520D-06 -.262976062891D+01  .353902578354D-06
     .984673067883D+00  .179468750000D+03  .160482866260D+01 -.785532720591D-08
     .342157109360D-09  .100000000000D+01  .167600000000D+04  .000000000000D+00
     .340000000000D+01  .000000000000D+00 -.558793544769D-08  .144000000000D+03
     .273606000000D+06  .400000000000D+01
10 12  2 22  6  0  0.0 -.298144295812D-04 -.125055521494D-11  .000000000000D+00
     .920000000000D+02  .136875000000D+02  .521271713059D-08 -.309102839991D+01
     .663101673126D-06  .111978304340D-01  .314600765705D-05  .515366809845D+04
     .280800000000D+06  .745058059692D-08  .159274191054D+01 -.137835741043D-06
     .946185638898D+00  .311843750000D+03  .744780778355D+00 -.842285084555D-08
     .125719522437D-09  .100000000000D+01  .167600000000D+04  .000000000000D+00
     .340000000000D+01  .000000000000D+00 -.232830643654D-08  .920000000000D+02
     .273606000000D+06  .400000000000D+01
11 12  2 22  6  0  0.0 -.234797131270D-03 -.363797880709D-11  .000000000000D+00
     .560000000000D+02 -.290625000000D+01  .602346518722D-08 -.445898925663D+00
    -.707805156708D-07  .127463965910D-01  .117570161819D-04  .515368289375D+04
     .280800000000D+06 -.465661287308D-07  .256312468260D+00  .173225998878D-06
     .888532422142D+00  .114125000000D+03  .102924582500D+01 -.890501378671D-08
     .110361739867D-09  .100000000000D+01  .167600000000D+04  .000000000000D+00
     .240000000000D+01  .000000000000D+00 -.116415321827D-07  .560000000000D+02
     .273606000000D+06  .400000000000D+01
12 12  2 22  6  0  0.0  .538416206837D-04  .216004991671D-11  .000000000000D+00
     .920000000000D+02  .170625000000D+02  .474519765653D-08 -.735420697864D+00
     .908970832825D-06  .386436807457D-02  .230222940445D-05  .515355596542D+04
     .280800000000D+06  .447034835815D-07 -.154726813487D+01 -.726431608200D-07
     .978238273494D+00  .346718750000D+03 -.599425240924D-01 -.843106547343D-08
     .138934358602D-09  .100000000000D+01  .167600000000D+04  .000000000000D+00
     .240000000000D+01  .000000000000D+00 -.121071934700D-07  .920000000000D+02
     .273606000000D+06  .400000000000D+01
13 12  2 22  6  0  0.0  .223585404456D-03 -.216004991671D-11  .000000000000D+00
     .980000000000D+02 -.493750000000D+02  .374587031625D-08  .178321722526D+01
    -.257976353168D-05  .478867755737D-02  .103227794170D-04  .515371564484D+04
     .280800000000D+06  .726431608200D-07  .270905302414D+01 -.186264514923D-08
     .986947334958D+00  .193187500000D+03  .194012304806D+01 -.762103173228D-08
    -.448590114150D-09  .100000000000D+01  .167600000000D+04  .000000000000D+00
     .240000000000D+01  .000000000000D+00 -.111758708954D-07  .980000000000D+02
     .273606000000D+06  .400000000000D+01
14 12  2 22  6  0  0.0  .194713938981D-03  .136424205266D-11  .000000000000D+00
     .960000000000D+02 -.593750000000D+02  .397695137027D-08  .179714859267D+01
    -.299513339996D-05  .615037861280D-02  .102482736111D-04  .515356077194D+04
     .280800000000D+06 -.108033418655D-06  .268302904716D+01 -.154599547386D-06
     .979809893701D+00  .190000000000D+03 -.204738677929D+01 -.780282501898D-08
    -.473948313278D-09  .100000000000D+01  .167600000000D+04  .000000000000D+00
     .240000000000D+01  .000000000000D+00 -.884756445885D-08  .960000000000D+02
     .273606000000D+06  .400000000000D+01
